NORAD_CAT_ID,OBJECT_NAME,OBJECT_TYPE,EPOCH,MEAN_MOTION,ECCENTRICITY,INCLINATION,RA_OF_ASC_NODE,ARG_OF_PERICENTER,MEAN_ANOMALY,BSTAR,MEAN_MOTION_DOT,MEAN_MOTION_DDOT,TLE_LINE0,TLE_LINE1,TLE_LINE2,SEMIMAJOR_AXIS,PERIOD,APOGEE,PERIGEE,DECAYED
51963.0,STARLINK-3675,PAYLOAD,2024-04-06 22:28:43,15.08030611,0.000149,53.0552,295.7969,97.7131,262.4027,4.6402e-05,4.36e-06,0.0,0 STARLINK-3675,1 51963U 22025H   24097.93661799  .00000436  00000-0  46402-4 0  9990,2 51963  53.0552 295.7969 0001490  97.7131 262.4027 15.08030611115224,6920.355,95.489,543.252,541.189,0.0
51963.0,STARLINK-3675,PAYLOAD,2024-04-07 22:20:16,15.08030193,0.0001495,53.0549,291.3233,79.6772,280.4386,2.2107e-05,5.8e-07,0.0,0 STARLINK-3675,1 51963U 22025H   24098.93074390  .00000058  00000-0  22107-4 0  9992,2 51963  53.0549 291.3233 0001495  79.6772 280.4386 15.08030193115370,6920.357,95.489,543.256,541.187,0.0
51963.0,STARLINK-3675,PAYLOAD,2024-04-08 12:39:11,15.08030611,0.0001515,53.0569,288.6375,90.3906,269.7257,7.937e-05,9.5e-06,0.0,0 STARLINK-3675,1 51963U 22025H   24099.52721660  .00000950  00000-0  79370-4 0  9992,2 51963  53.0569 288.6375 0001515  90.3906 269.7257 15.08030611115462,6920.355,95.489,543.269,541.172,0.0
51963.0,STARLINK-3675,PAYLOAD,2024-04-08 19:00:55,15.08035567,0.0001507,53.0528,287.4436,94.9295,265.1867,0.00011024,1.431e-05,0.0,0 STARLINK-3675,1 51963U 22025H   24099.79231177  .00001431  00000-0  11024-3 0  9996,2 51963  53.0528 287.4436 0001507  94.9295 265.1867 15.08035567115501,6920.34,95.488,543.248,541.162,0.0
51963.0,STARLINK-3675,PAYLOAD,2024-04-09 12:30:43,15.08031253,0.0001281,53.0502,284.1627,93.0926,267.021,4.0419e-05,3.43e-06,0.0,0 STARLINK-3675,1 51963U 22025H   24100.52134130  .00000343  00000-0  40419-4 0  9993,2 51963  53.0502 284.1627 0001281  93.0926 267.0210 15.08031253116703,6920.354,95.489,543.105,541.332,0.0
51963.0,STARLINK-3675,PAYLOAD,2024-04-09 18:52:28,15.08030166,0.0001373,53.0545,282.9705,94.1496,265.9651,5.0513e-05,5.01e-06,0.0,0 STARLINK-3675,1 51963U 22025H   24100.78644174  .00000501  00000-0  50513-4 0  9997,2 51963  53.0545 282.9705 0001373  94.1496 265.9651 15.08030166115650,6920.357,95.489,543.172,541.272,0.0
51963.0,STARLINK-3675,PAYLOAD,2024-04-10 12:22:16,15.08031686,0.0001366,53.0519,279.6885,95.3058,264.8088,6.3384e-06,-1.87e-06,0.0,0 STARLINK-3675,1 51963U 22025H   24101.51546671 -.00000187  00000-0  63384-5 0  9994,2 51963  53.0519 279.6885 0001366  95.3058 264.8088 15.08031686115764,6920.352,95.489,543.163,541.272,0.0
51963.0,STARLINK-3675,PAYLOAD,2024-04-10 18:44:00,15.08035488,0.000161,53.0522,278.4956,91.1736,268.9438,4.6923e-05,4.45e-06,0.0,0 STARLINK-3675,1 51963U 22025H   24101.78056274  .00000445  00000-0  46923-4 0  9993,2 51963  53.0522 278.4956 0001610  91.1736 268.9438 15.08035488116896,6920.341,95.488,543.32,541.091,0.0
51963.0,STARLINK-3675,PAYLOAD,2024-04-11 12:13:49,15.08026316,0.0001532,53.0542,275.2157,87.0456,273.0709,5.9779e-05,6.45e-06,0.0,0 STARLINK-3675,1 51963U 22025H   24102.50959544  .00000645  00000-0  59779-4 0  9991,2 51963  53.0542 275.2157 0001532  87.0456 273.0709 15.08026316117004,6920.369,95.489,543.294,541.173,0.0
51963.0,STARLINK-3675,PAYLOAD,2024-04-11 18:35:33,15.08025341,0.0001409,53.0553,274.0252,99.3682,260.7467,5.2115e-05,5.25e-06,0.0,0 STARLINK-3675,1 51963U 22025H   24102.77469680  .00000525  00000-0  52115-4 0  9991,2 51963  53.0553 274.0252 0001409  99.3682 260.7467 15.08025341115952,6920.372,95.489,543.212,541.262,0.0
51963.0,STARLINK-3675,PAYLOAD,2024-04-12 04:08:10,15.08027426,0.0001631,53.055,272.2348,96.0638,264.0538,6.6606e-05,7.51e-06,0.0,0 STARLINK-3675,1 51963U 22025H   24103.17234634  .00000751  00000-0  66606-4 0  9996,2 51963  53.0550 272.2348 0001631  96.0638 264.0538 15.08027426116017,6920.365,95.489,543.359,541.102,0.0
51963.0,STARLINK-3675,PAYLOAD,2024-04-12 15:16:13,15.08031652,0.0001434,53.0557,270.1475,96.0601,264.0552,6.6507e-05,7.5e-06,0.0,0 STARLINK-3675,1 51963U 22025H   24103.63626957  .00000750  00000-0  66507-4 0  9999,2 51963  53.0557 270.1475 0001434  96.0601 264.0552 15.08031652117173,6920.352,95.489,543.21,541.225,0.0
51963.0,STARLINK-3675,PAYLOAD,2024-04-13 10:21:27,15.08028026,0.0001492,53.0558,266.5678,94.4914,265.6246,0.00014451,1.964e-05,0.0,0 STARLINK-3675,1 51963U 22025H   24104.43157122  .00001964  00000-0  14451-3 0  9999,2 51963  53.0558 266.5678 0001492  94.4914 265.6246 15.08028026116202,6920.363,95.489,543.261,541.196,0.0
51963.0,STARLINK-3675,PAYLOAD,2024-04-13 18:18:38,15.08034014,0.0001364,53.0548,265.0746,86.694,273.4206,0.00014176,1.922e-05,0.0,0 STARLINK-3675,1 51963U 22025H   24104.76294364  .00001922  00000-0  14176-3 0  9993,2 51963  53.0548 265.0746 0001364  86.6940 273.4206 15.08034014117344,6920.345,95.489,543.154,541.266,0.0
51963.0,STARLINK-3675,PAYLOAD,2024-04-14 16:34:44,15.08029414,0.0001798,53.0545,260.9009,63.0987,297.0186,0.00038881,5.772e-05,0.0,0 STARLINK-3675,1 51963U 22025H   24105.69079809  .00005772  00000-0  38881-3 0  9997,2 51963  53.0545 260.9009 0001798  63.0987 297.0186 15.08029414117480,6920.359,95.489,543.468,540.98,0.0
51963.0,STARLINK-3675,PAYLOAD,2024-04-15 19:37:09,15.0803326,0.0001993,53.0537,255.8308,57.6722,302.446,0.00013068,1.749e-05,0.0,0 STARLINK-3675,1 51963U 22025H   24106.81747117  .00001749  00000-0  13068-3 0  9996,2 51963  53.0537 255.8308 0001993  57.6722 302.4460 15.08033260117658,6920.347,95.489,543.592,540.833,0.0
51963.0,STARLINK-3675,PAYLOAD,2024-04-16 14:42:22,15.08043566,0.0001808,53.0544,252.2496,94.5687,265.5509,0.00024438,3.522e-05,0.0,0 STARLINK-3675,1 51963U 22025H   24107.61276339  .00003522  00000-0  24438-3 0  9992,2 51963  53.0544 252.2496 0001808  94.5687 265.5509 15.08043566116685,6920.316,95.488,543.432,540.93,0.0
51963.0,STARLINK-3675,PAYLOAD,2024-04-16 16:17:48,15.08048532,0.0001716,53.0547,251.9498,90.6571,269.4615,0.00032704,4.812e-05,0.0,0 STARLINK-3675,1 51963U 22025H   24107.67903571  .00004812  00000-0  32704-3 0  9991,2 51963  53.0547 251.9498 0001716  90.6571 269.4615 15.08048532117784,6920.301,95.488,543.353,540.978,0.0
51963.0,STARLINK-3675,PAYLOAD,2024-04-17 12:58:29,15.08029186,0.0001368,53.0523,248.0717,86.2663,273.8483,7.4588e-05,8.75e-06,0.0,0 STARLINK-3675,1 51963U 22025H   24108.54061791  .00000875  00000-0  74588-4 0  9999,2 51963  53.0523 248.0717 0001368  86.2663 273.8483 15.08029186117916,6920.36,95.489,543.172,541.278,0.0
51963.0,STARLINK-3675,PAYLOAD,2024-04-17 14:33:55,15.08031015,0.0001523,53.0534,247.7736,96.4727,263.6436,8.4379e-05,1.028e-05,0.0,0 STARLINK-3675,1 51963U 22025H   24108.60689169  .00001028  00000-0  84379-4 0  9991,2 51963  53.0534 247.7736 0001523  96.4727 263.6436 15.08031015116831,6920.354,95.489,543.273,541.165,0.0
51963.0,STARLINK-3675,PAYLOAD,2024-04-17 16:09:21,15.08032965,0.0001658,53.0544,247.4733,103.5533,256.5642,0.00012443,1.652e-05,0.0,0 STARLINK-3675,1 51963U 22025H   24108.67316527  .00001652  00000-0  12443-3 0  9998,2 51963  53.0544 247.4733 0001658 103.5533 256.5642 15.08032965116846,6920.348,95.489,543.361,541.066,0.0
51963.0,STARLINK-3675,PAYLOAD,2024-04-18 14:25:28,15.08024005,0.0001647,53.0548,243.2995,115.47,244.646,-0.00015831,-2.749e-05,0.0,0 STARLINK-3675,1 51963U 22025H   24109.60102196 -.00002749  00000-0 -15831-3 0  9991,2 51963  53.0548 243.2995 0001647 115.4700 244.6460 15.08024005116987,6920.376,95.489,543.38,541.101,0.0
51963.0,STARLINK-3675,PAYLOAD,2024-04-19 12:41:36,15.08006595,0.0001305,53.0545,239.1254,100.6622,259.4515,-9.2991e-05,-1.732e-05,0.0,0 STARLINK-3675,1 51963U 22025H   24110.52889178 -.00001732  00000-0 -92991-4 0  9990,2 51963  53.0545 239.1254 0001305 100.6622 259.4515 15.08006595118213,6920.429,95.49,543.197,541.391,0.0
51963.0,STARLINK-3675,PAYLOAD,2024-04-19 14:17:01,15.08045335,0.0001772,53.055,238.8236,78.8052,281.3137,0.00051693,7.774e-05,0.0,0 STARLINK-3675,1 51963U 22025H   24110.59515438  .00007774  00000-0  51693-3 0  9995,2 51963  53.0550 238.8236 0001772  78.8052 281.3137 15.08045335117135,6920.31,95.488,543.402,540.949,0.0
51963.0,STARLINK-3675,PAYLOAD,2024-04-19 15:52:27,15.08053171,0.0001597,53.0544,238.5239,89.8211,270.2962,0.00062028,9.39e-05,0.0,0 STARLINK-3675,1 51963U 22025H   24110.66142493  .00009390  00000-0  62028-3 0  9990,2 51963  53.0544 238.5239 0001597  89.8211 270.2962 15.08053171118234,6920.286,95.487,543.257,541.046,0.0
51963.0,STARLINK-3675,PAYLOAD,2024-04-20 12:33:07,15.08032869,0.0001565,53.0544,234.652,75.5552,284.5611,0.00034416,5.076e-05,0.0,0 STARLINK-3675,1 51963U 22025H   24111.52300636  .00005076  00000-0  34416-3 0  9998,2 51963  53.0544 234.6520 0001565  75.5552 284.5611 15.08032869118363,6920.349,95.489,543.297,541.131,0.0
51963.0,STARLINK-3675,PAYLOAD,2024-04-20 14:08:33,15.08033294,0.0001422,53.0547,234.3534,75.176,284.9387,0.00033436,4.924e-05,0.0,0 STARLINK-3675,1 51963U 22025H   24111.58928074  .00004924  00000-0  33436-3 0  9998,2 51963  53.0547 234.3534 0001422  75.1760 284.9387 15.08033294117284,6920.347,95.489,543.196,541.228,0.0
51963.0,STARLINK-3675,PAYLOAD,2024-04-20 15:43:59,15.08040857,0.0001244,53.0547,234.0553,72.7333,287.3792,0.00042228,6.296e-05,0.0,0 STARLINK-3675,1 51963U 22025H   24111.65555159  .00006296  00000-0  42228-3 0  9999,2 51963  53.0547 234.0553 0001244  72.7333 287.3792 15.08040857117294,6920.324,95.488,543.05,541.328,0.0
51963.0,STARLINK-3675,PAYLOAD,2024-04-21 14:00:06,15.08041819,0.0001865,53.054,229.8806,65.8202,294.2983,-0.00018188,-3.118e-05,0.0,0 STARLINK-3675,1 51963U 22025H   24112.58340281 -.00003118  00000-0 -18188-3 0  9990,2 51963  53.0540 229.8806 0001865  65.8202 294.2983 15.08041819117431,6920.321,95.488,543.477,540.896,0.0
51963.0,STARLINK-3675,PAYLOAD,2024-04-21 15:35:31,15.08058679,0.0001413,53.0556,229.5767,70.877,289.2373,6.9897e-05,8.03e-06,0.0,0 STARLINK-3675,1 51963U 22025H   24112.64966896  .00000803  00000-0  69897-4 0  9993,2 51963  53.0556 229.5767 0001413  70.8770 289.2373 15.08058679118537,6920.27,95.487,543.112,541.157,0.0
